GSAT0101 (GALILEO-PFM)  
1 37846U 11060A   25220.19853883 -.00000082  00000+0  00000+0 0  9991
2 37846  57.0847 350.2514 0001503  67.8102 292.2064  1.70475755 85788
GSAT0102 (GALILEO-FM2)  
1 37847U 11060B   25220.71311620 -.00000081  00000+0  00000+0 0  9997
2 37847  57.0852 350.2378 0001656 348.2003  13.0035  1.70475916 85807
GSAT0103 (GALILEO-FM3)  
1 38857U 12055A   25219.06530449 -.00000011  00000+0  00000+0 0  9995
2 38857  55.6132 110.1741 0003938 291.6980  68.3202  1.70473576 79791
GSAT0201 (GALILEO 5)    
1 40128U 14050A   25220.26560108 -.00000008  00000+0  00000+0 0  9991
2 40128  49.2152 286.2111 1636941 167.4203 197.2727  1.85519670 72516
GSAT0202 (GALILEO 6)    
1 40129U 14050B   25218.36638670 -.00000013  00000+0  00000+0 0  9996
2 40129  49.2330 285.3704 1637047 168.1111 196.3337  1.85520242 74647
GSAT0203 (GALILEO 7)    
1 40544U 15017A   25217.04416385 -.00000088  00000+0  00000+0 0  9994
2 40544  56.8794 350.2143 0003176 244.2696 115.6984  1.70476332 63811
GSAT0204 (GALILEO 8)    
1 40545U 15017B   25220.23217121 -.00000082  00000+0  00000+0 0  9991
2 40545  56.8848 350.1450 0003506 227.1732 132.7983  1.70475784 26919
GSAT0205 (GALILEO 9)    
1 40889U 15045A   25215.89412069  .00000083  00000+0  00000+0 0  9997
2 40889  55.0518 230.3682 0003023  11.1378 348.9196  1.70473694 61602
GSAT0206 (GALILEO 10)   
1 40890U 15045B   25220.22086123  .00000086  00000+0  00000+0 0  9993
2 40890  55.0496 230.2439 0001726 326.5853  33.4445  1.70473546 61707
GSAT0209 (GALILEO 12)   
1 41174U 15079A   25219.80313901 -.00000007  00000+0  00000+0 0  9999
2 41174  55.6346 109.8668 0004109 352.6455   7.4145  1.70473890 59431
GSAT0208 (GALILEO 11)   
1 41175U 15079B   25214.74384795 -.00000027  00000+0  00000+0 0  9999
2 41175  55.6305 110.0033 0004100 340.7329  19.2958  1.70473787 59928
GSAT0211 (GALILEO 14)   
1 41549U 16030A   25220.14657233  .00000086  00000+0  00000+0 0  9997
2 41549  55.1991 230.3024 0003247 313.0601  46.9542  1.70473577 57338
GSAT0210 (GALILEO 13)   
1 41550U 16030B   25219.23115354  .00000089  00000+0  00000+0 0  9993
2 41550  55.1984 230.3257 0004503 241.3888 118.6125  1.70473830 57297
GSAT0207 (GALILEO 15)   
1 41859U 16069A   25218.33673287 -.00000015  00000+0  00000+0 0  9991
2 41859  55.3015 109.8076 0003954 331.5214  28.5127  1.70473755 54259
GSAT0212 (GALILEO 16)   
1 41860U 16069B   25220.53694275 -.00000003  00000+0  00000+0 0  9995
2 41860  55.3001 109.7422 0003788  23.7942 336.2944  1.70473829 54329
GSAT0213 (GALILEO 17)   
1 41861U 16069C   25219.73154896 -.00000008  00000+0  00000+0 0  9991
2 41861  55.3022 109.7719 0003323 308.1302  51.9051  1.70474257 54176
GSAT0214 (GALILEO 18)   
1 41862U 16069D   25219.87734870 -.00000007  00000+0  00000+0 0  9992
2 41862  55.3009 109.7609 0002504 321.3935  38.6550  1.70473928 54304
GSAT0215 (GALILEO 19)   
1 43055U 17079A   25218.60732277  .00000089  00000+0  00000+0 0  9998
2 43055  55.1764 230.1608 0003613 263.1849  96.8227  1.70474336 47621
GSAT0216 (GALILEO 20)   
1 43056U 17079B   25218.89869587  .00000089  00000+0  00000+0 0  9995
2 43056  55.1775 230.1527 0004880 273.2700  86.7219  1.70474472 47618
GSAT0217 (GALILEO 21)   
1 43057U 17079C   25220.29249586  .00000086  00000+0  00000+0 0  9991
2 43057  55.1749 230.1125 0004098 285.3411  74.6536  1.70474336 47659
GSAT0218 (GALILEO 22)   
1 43058U 17079D   25216.99309543  .00000087  00000+0  00000+0 0  9995
2 43058  55.1762 230.2010 0005374 270.4078  89.5822  1.70474429 47624
GSAT0221 (GALILEO 25)   
1 43564U 18060A   25219.82863424 -.00000082  00000+0  00000+0 0  9992
2 43564  57.2592 350.2442 0003113 268.9572  91.0074  1.70476179 43821
GSAT0222 (GALILEO 26)   
1 43565U 18060B   25219.46120344 -.00000083  00000+0  00000+0 0  9991
2 43565  57.2636 350.2569 0003423 228.4985 131.4723  1.70475980 43867
GSAT0219 (GALILEO 23)   
1 43566U 18060C   25218.50932929 -.00000084  00000+0  00000+0 0  9997
2 43566  57.2629 350.2840 0002081 276.5712  83.4051  1.70476206 43821
GSAT0220 (GALILEO 24)   
1 43567U 18060D   25218.73018326 -.00000084  00000+0  00000+0 0  9999
2 43567  57.2625 350.2790 0002429 268.1785  91.7936  1.70476104 43815
GSAT0223 (GALILEO 27)   
1 49809U 21116A   25218.88158921 -.00000084  00000+0  00000+0 0  9992
2 49809  57.2522 350.1663 0002947 193.3719 350.1923  1.70476375 22821
GSAT0224 (GALILEO 28)   
1 49810U 21116B   25218.98080458 -.00000083  00000+0  00000+0 0  9993
2 49810  57.2531 350.1623 0002371 183.3085 173.7133  1.70476422 22842
GSAT0225 (GALILEO 29)   
1 59598U 24079A   25218.72806083 -.00000014  00000+0  00000+0 0  9994
2 59598  54.9199 109.8773 0000714 203.1411 350.9787  1.70474111  7949
GSAT0227 (GALILEO 30)   
1 59600U 24079C   25218.00867282 -.00000018  00000+0  00000+0 0  9991
2 59600  54.9147 109.8964 0002515  82.4776 277.6041  1.70474092  7992
GSAT0232 (GALILEO 32)   
1 61182U 24167A   25220.62415638  .00000085  00000+0  00000+0 0  9995
2 61182  55.2871 229.8880 0005272 231.3638 128.9278  1.70473888  5555
GSAT0226 (GALILEO 31)   
1 61183U 24167B   25219.36915189  .00000089  00000+0  00000+0 0  9995
2 61183  55.2860 229.9280 0003014 229.3151 193.3619  1.70474092  5517
